TRANSPORTER-17 OBJECT Z 
1 69892U 26156Z   26203.16421301  .00001187  00000+0  12279-3 0  9995
2 69892  97.7529 103.3795 0008831 103.0769 257.1437 14.91927709  2212
TRANSPORTER-17 OBJECT AA
1 69893U 26156AA  26202.69985611  .00001607  00000+0  16650-3 0  9996
2 69893  97.7541 102.9131 0007028  93.2258 266.9765 14.91397758  2145
TRANSPORTER-17 OBJECT AB
1 69894U 26156AB  26203.16799602  .00000604  00000+0  65830-4 0  9994
2 69894  97.7550 103.3792 0007296  96.6005 263.6045 14.91538467  2215
TRANSPORTER-17 OBJECT AC
1 69895U 26156AC  26203.03367292  .00000757  00000+0  81057-4 0  9995
2 69895  97.7515 103.2395 0007920  94.3436 265.8688 14.91554938  2197
TRANSPORTER-17 OBJECT AD
1 69896U 26156AD  26203.16340903  .00001165  00000+0  12033-3 0  9991
2 69896  97.7529 103.3805 0009164 104.0801 256.1437 14.92007128  2210
TRANSPORTER-17 OBJECT AE
1 69897U 26156AE  26203.17605745  .00001128  00000+0  12046-3 0  9994
2 69897  97.7569 103.3700 0003660  97.1556 263.0078 14.90732688  2215
TRANSPORTER-17 OBJECT AF
1 69898U 26156AF  26203.16870787  .00000611  00000+0  66634-4 0  9993
2 69898  97.7547 103.3773 0007102  95.0354 265.1675 14.91466728  2216
TRANSPORTER-17 OBJECT AG
1 69899U 26156AG  26203.03733925  .00000804  00000+0  86490-4 0  9998
2 69899  97.7512 103.2346 0006664  84.4960 275.7019 14.91183657  2194
TRANSPORTER-17 OBJECT AH
1 69900U 26156AH  26203.03746924  .00001342  00000+0  14068-3 0  9993
2 69900  97.7564 103.2450 0006091  88.7343 271.4573 14.91175706  2190
TRANSPORTER-17 OBJECT AJ
1 69901U 26156AJ  26203.17251945  .00000614  00000+0  67555-4 0  9994
2 69901  97.7526 103.3679 0006217  82.8263 277.3662 14.91082988  2215
TRANSPORTER-17 OBJECT AK
1 69902U 26156AK  26203.17335133  .00001282  00000+0  13521-3 0  9992
2 69902  97.7492 103.3612 0005798  80.3507 279.8366 14.91005635  2214
TRANSPORTER-17 OBJECT AL
1 69903U 26156AL  26203.17348755  .00001139  00000+0  12078-3 0  9994
2 69903  97.7576 103.3756 0005029  89.0445 271.1349 14.90990136  2215
TRANSPORTER-17 OBJECT AM
1 69904U 26156AM  26203.16756899  .00000891  00000+0  94327-4 0  9998
2 69904  97.7511 103.3705 0007789  95.8010 264.4097 14.91584800  2108
TRANSPORTER-17 OBJECT AN
1 69905U 26156AN  26203.03889009  .00003060  00000+0  31465-3 0  9999
2 69905  97.7564 103.2433 0005321  87.6328 272.5499 14.91044083  2194
TRANSPORTER-17 OBJECT AP
1 69906U 26156AP  26203.17386219  .00000751  00000+0  81674-4 0  9992
2 69906  97.7474 103.3580 0005601  77.5838 282.6007 14.90949132  2212
TRANSPORTER-17 OBJECT AQ
1 69907U 26156AQ  26203.17396071  .00000395  00000+0  45590-4 0  9991
2 69907  97.7498 103.3618 0005242  81.4842 278.6970 14.90935557  2211
TRANSPORTER-17 OBJECT AR
1 69908U 26156AR  26203.16869798  .00001066  00000+0  11208-3 0  9996
2 69908  97.7518 103.3712 0007561  92.1989 268.0096 14.91473481  2213
TRANSPORTER-17 OBJECT AS
1 69909U 26156AS  26203.03522674  .00000785  00000+0  84183-4 0  9992
2 69909  97.7538 103.2424 0007049  92.3876 267.8150 14.91398043  2198
TRANSPORTER-17 OBJECT AT
1 69910U 26156AT  26203.03961225  .00003243  00000+0  33378-3 0  9994
2 69910  97.7545 103.2383 0004890  90.3419 269.8360 14.90973572  2194
TRANSPORTER-17 OBJECT AU
1 69911U 26156AU  26203.17636237  .00000890  00000+0  96297-4 0  9997
2 69911  97.7538 103.3650 0003724  86.8806 273.2839 14.90699205  2211
TRANSPORTER-17 OBJECT AV
1 69912U 26156AV  26202.97389250  .00001285  00000+0  13623-3 0  9995
2 69912  97.7555 103.1712 0004162  90.1081 270.0614 14.90813877  2183
TRANSPORTER-17 OBJECT AW
1 69913U 26156AW  26203.17440466  .00000983  00000+0  10524-3 0  9997
2 69913  97.7581 103.3743 0004347  97.8003 262.3709 14.90897296  2212
TRANSPORTER-17 OBJECT AX
1 69914U 26156AX  26203.04166015  .00000908  00000+0  98014-4 0  9997
2 69914  97.7559 103.2380 0004435  76.8975 283.2738 14.90744855  2190
TRANSPORTER-17 OBJECT AY
1 69915U 26156AY  26203.16636589  .00001058  00000+0  11067-3 0  9998
2 69915  97.7512 103.3725 0008363  98.0017 262.2151 14.91708380  2214
TRANSPORTER-17 OBJECT AZ
1 69916U 26156AZ  26203.17473763  .00001794  00000+0  18758-3 0  9994
2 69916  97.7518 103.3640 0004592  84.9125 275.2617 14.90873802  2213
TRANSPORTER-17 OBJECT BA
1 69917U 26156BA  26202.68905919  .00001339  00000+0  13578-3 0  9993
2 69917  97.7574 102.9324 0011172 111.4559 248.7853 14.92517513  2144
TRANSPORTER-17 OBJECT BB
1 69918U 26156BB  26203.16600225  .00000586  00000+0  63690-4 0  9994
2 69918  97.7552 103.3820 0007874 101.8488 258.3614 14.91739196  2217
TRANSPORTER-17 OBJECT BC
1 69919U 26156BC  26203.16472605  .00000607  00000+0  65574-4 0  9991
2 69919  97.7519 103.3768 0008711 101.7266 258.4931 14.91867991  2214
TRANSPORTER-17 OBJECT BD
1 69920U 26156BD  26202.82851311  .00001780  00000+0  18115-3 0  9991
2 69920  97.7524 103.0490 0009071 103.0276 257.1956 14.91968422  2165
