OBJECT_NAME,OBJECT_ID,EPOCH,MEAN_MOTION,ECCENTRICITY,INCLINATION,RA_OF_ASC_NODE,ARG_OF_PERICENTER,MEAN_ANOMALY,EPHEMERIS_TYPE,CLASSIFICATION_TYPE,NORAD_CAT_ID,ELEMENT_SET_NO,REV_AT_EPOCH,BSTAR,MEAN_MOTION_DOT,MEAN_MOTION_DDOT
TRANSPORTER-17 OBJECT Z,2026-156Z,2026-07-22T03:56:28.004064,14.91927709,.00088319,97.7529,103.3795,103.0769,257.1437,0,U,69892,999,221,.12278746E-3,.1187E-4,0
TRANSPORTER-17 OBJECT AA,2026-156AA,2026-07-21T16:47:47.567904,14.91397758,.00070282,97.7541,102.9131,93.2258,266.9765,0,U,69893,999,214,.16649556E-3,.1607E-4,0
TRANSPORTER-17 OBJECT AB,2026-156AB,2026-07-22T04:01:54.856128,14.91538467,.00072964,97.7550,103.3792,96.6005,263.6045,0,U,69894,999,221,.65830469E-4,.604E-5,0
TRANSPORTER-17 OBJECT AC,2026-156AC,2026-07-22T00:48:29.340288,14.91554938,.00079204,97.7515,103.2395,94.3436,265.8688,0,U,69895,999,219,.81057394E-4,.757E-5,0
TRANSPORTER-17 OBJECT AD,2026-156AD,2026-07-22T03:55:18.540192,14.92007128,.00091642,97.7529,103.3805,104.0801,256.1437,0,U,69896,999,221,.12033142E-3,.1165E-4,0
TRANSPORTER-17 OBJECT AE,2026-156AE,2026-07-22T04:13:31.363680,14.90732688,.00036602,97.7569,103.3700,97.1556,263.0078,0,U,69897,999,221,.12045734E-3,.1128E-4,0
TRANSPORTER-17 OBJECT AF,2026-156AF,2026-07-22T04:02:56.359968,14.91466728,.00071029,97.7547,103.3773,95.0354,265.1675,0,U,69898,999,221,.66634015E-4,.611E-5,0
TRANSPORTER-17 OBJECT AG,2026-156AG,2026-07-22T00:53:46.111200,14.91183657,.00066647,97.7512,103.2346,84.4960,275.7019,0,U,69899,999,219,.86489693E-4,.804E-5,0
TRANSPORTER-17 OBJECT AH,2026-156AH,2026-07-22T00:53:57.342336,14.91175706,.00060917,97.7564,103.2450,88.7343,271.4573,0,U,69900,999,219,.14067916E-3,.1342E-4,0
TRANSPORTER-17 OBJECT AJ,2026-156AJ,2026-07-22T04:08:25.680480,14.91082988,.0006217,97.7526,103.3679,82.8263,277.3662,0,U,69901,999,221,.67555468E-4,.614E-5,0
TRANSPORTER-17 OBJECT AK,2026-156AK,2026-07-22T04:09:37.554912,14.91005635,.0005798,97.7492,103.3612,80.3507,279.8366,0,U,69902,999,221,.13520602E-3,.1282E-4,0
TRANSPORTER-17 OBJECT AL,2026-156AL,2026-07-22T04:09:49.324320,14.90990136,.00050295,97.7576,103.3756,89.0445,271.1349,0,U,69903,999,221,.12078288E-3,.1139E-4,0
TRANSPORTER-17 OBJECT AM,2026-156AM,2026-07-22T04:01:17.960736,14.91584800,.00077892,97.7511,103.3705,95.8010,264.4097,0,U,69904,999,210,.94326771E-4,.891E-5,0
TRANSPORTER-17 OBJECT AN,2026-156AN,2026-07-22T00:56:00.103776,14.91044083,.00053216,97.7564,103.2433,87.6328,272.5499,0,U,69905,999,219,.31465368E-3,.306E-4,0
TRANSPORTER-17 OBJECT AP,2026-156AP,2026-07-22T04:10:21.693216,14.90949132,.00056014,97.7474,103.3580,77.5838,282.6007,0,U,69906,999,221,.81674432E-4,.751E-5,0
TRANSPORTER-17 OBJECT AQ,2026-156AQ,2026-07-22T04:10:30.205344,14.90935557,.0005242,97.7498,103.3618,81.4842,278.6970,0,U,69907,999,221,.4559045E-4,.395E-5,0
TRANSPORTER-17 OBJECT AR,2026-156AR,2026-07-22T04:02:55.505472,14.91473481,.0007561,97.7518,103.3712,92.1989,268.0096,0,U,69908,999,221,.11208135E-3,.1066E-4,0
TRANSPORTER-17 OBJECT AS,2026-156AS,2026-07-22T00:50:43.590336,14.91398043,.00070498,97.7538,103.2424,92.3876,267.8150,0,U,69909,999,219,.84183473E-4,.785E-5,0
TRANSPORTER-17 OBJECT AT,2026-156AT,2026-07-22T00:57:02.498400,14.90973572,.00048904,97.7545,103.2383,90.3419,269.8360,0,U,69910,999,219,.33378288E-3,.3243E-4,0
TRANSPORTER-17 OBJECT AU,2026-156AU,2026-07-22T04:13:57.708768,14.90699205,.00037245,97.7538,103.3650,86.8806,273.2839,0,U,69911,999,221,.96297142E-4,.89E-5,0
TRANSPORTER-17 OBJECT AV,2026-156AV,2026-07-21T23:22:24.312000,14.90813877,.00041626,97.7555,103.1712,90.1081,270.0614,0,U,69912,999,218,.13622555E-3,.1285E-4,0
TRANSPORTER-17 OBJECT AW,2026-156AW,2026-07-22T04:11:08.562624,14.90897296,.00043473,97.7581,103.3743,97.8003,262.3709,0,U,69913,999,221,.10524273E-3,.983E-5,0
TRANSPORTER-17 OBJECT AX,2026-156AX,2026-07-22T00:59:59.436960,14.90744855,.00044353,97.7559,103.2380,76.8975,283.2738,0,U,69914,999,219,.9801417E-4,.908E-5,0
TRANSPORTER-17 OBJECT AY,2026-156AY,2026-07-22T03:59:34.012896,14.91708380,.00083631,97.7512,103.3725,98.0017,262.2151,0,U,69915,999,221,.11067306E-3,.1058E-4,0
TRANSPORTER-17 OBJECT AZ,2026-156AZ,2026-07-22T04:11:37.331232,14.90873802,.00045922,97.7518,103.3640,84.9125,275.2617,0,U,69916,999,221,.18758108E-3,.1794E-4,0
TRANSPORTER-17 OBJECT BA,2026-156BA,2026-07-21T16:32:14.714016,14.92517513,.00111722,97.7574,102.9324,111.4559,248.7853,0,U,69917,999,214,.13577558E-3,.1339E-4,0
TRANSPORTER-17 OBJECT BB,2026-156BB,2026-07-22T03:59:02.594400,14.91739196,.00078747,97.7552,103.3820,101.8488,258.3614,0,U,69918,999,221,.63690173E-4,.586E-5,0
TRANSPORTER-17 OBJECT BC,2026-156BC,2026-07-22T03:57:12.330720,14.91867991,.00087112,97.7519,103.3768,101.7266,258.4931,0,U,69919,999,221,.65574276E-4,.607E-5,0
TRANSPORTER-17 OBJECT BD,2026-156BD,2026-07-21T19:53:03.532704,14.91968422,.00090716,97.7524,103.0490,103.0276,257.1956,0,U,69920,999,216,.18114814E-3,.178E-4,0
